NORAD_CAT_ID,OBJECT_NAME,OBJECT_TYPE,EPOCH,MEAN_MOTION,ECCENTRICITY,INCLINATION,RA_OF_ASC_NODE,ARG_OF_PERICENTER,MEAN_ANOMALY,BSTAR,MEAN_MOTION_DOT,MEAN_MOTION_DDOT,TLE_LINE0,TLE_LINE1,TLE_LINE2,SEMIMAJOR_AXIS,PERIOD,APOGEE,PERIGEE,DECAYED
52120.0,STARLINK-3534,PAYLOAD,2022-04-09 14:00:01,15.73111961,0.0001068,53.2178,38.2215,104.7615,71.3686,0.00048955,0.00068386,0.0,0 STARLINK-3534,1 52120U 22029AJ  22099.58334491  .00068386  00000-0  48955-3 0  9999,2 52120  53.2178  38.2215 0001068 104.7615  71.3686 15.73111961  3726,6728.146,91.538,350.73,349.293,0.0
52120.0,STARLINK-3534,PAYLOAD,2022-04-09 20:00:01,15.73154959,0.0001173,53.2179,36.9842,110.5989,42.1635,0.0006388,0.0008982,0.0,0 STARLINK-3534,1 52120U 22029AJ  22099.83334491  .00089820  00000-0  63880-3 0  9997,2 52120  53.2179  36.9842 0001173 110.5989  42.1635 15.73154959  4673,6728.024,91.536,350.67800000000005,349.099,0.0
52120.0,STARLINK-3534,PAYLOAD,2022-04-09 22:00:00,15.73184429,0.000113,53.2178,36.5724,108.4906,156.4885,0.00038357,0.00053519,0.0,0 STARLINK-3534,1 52120U 22029AJ  22099.91667824  .00053519  00000-0  38357-3 0  9992,2 52120  53.2178  36.5724 0001130 108.4906 156.4885 15.73184429  3721,6727.94,91.534,350.565,349.0440000000001,0.0
52120.0,STARLINK-3534,PAYLOAD,2022-04-10 12:00:00,15.73290274,0.0001145,53.2173,33.686,106.157,224.4914,-0.00075549,-0.0010573,0.0,0 STARLINK-3534,1 52120U 22029AJ  22100.50001157 -.00105730  00000-0 -75549-3 0  9990,2 52120  53.2173  33.6860 0001145 106.1570 224.4914 15.73290274  4774,6727.638000000001,91.528,350.273,348.732,0.0
52120.0,STARLINK-3534,PAYLOAD,2022-04-10 14:00:01,15.73249202,0.0001148,53.2174,33.2732,110.8763,332.0352,-0.00034084,-0.0004828,0.0,0 STARLINK-3534,1 52120U 22029AJ  22100.58334491 -.00048280  00000-0 -34084-3 0  9993,2 52120  53.2174  33.2732 0001148 110.8763 332.0352 15.73249202  3718,6727.755,91.53,350.392,348.848,0.0
52120.0,STARLINK-3534,PAYLOAD,2022-04-10 20:00:01,15.73258797,0.0001284,53.2177,32.0355,113.3718,306.2901,-0.0003478,-0.00049269,0.0,0 STARLINK-3534,1 52120U 22029AJ  22100.83334491 -.00049269  00000-0 -34780-3 0  9992,2 52120  53.2177  32.0355 0001284 113.3718 306.2901 15.73258797  4834,6727.728,91.53,350.456,348.72900000000016,0.0
52120.0,STARLINK-3534,PAYLOAD,2022-04-10 22:00:00,15.73266531,0.0001258,53.2177,31.6237,112.1092,59.7967,-0.00061514,-0.00086314,0.0,0 STARLINK-3534,1 52120U 22029AJ  22100.91667824 -.00086314  00000-0 -61514-3 0  9997,2 52120  53.2177  31.6237 0001258 112.1092  59.7967 15.73266531  3714,6727.705,91.529,350.417,348.724,0.0
52120.0,STARLINK-3534,PAYLOAD,2022-04-11 04:00:01,15.73163649,0.0001127,53.2178,30.3881,100.7205,47.9722,0.00017656,0.00024192,0.0,0 STARLINK-3534,1 52120U 22029AJ  22101.16668981  .00024192  00000-0  17656-3 0  9992,2 52120  53.2178  30.3881 0001127 100.7205  47.9722 15.73163649  4883,6727.999,91.535,350.622,349.106,0.0
52120.0,STARLINK-3534,PAYLOAD,2022-04-11 14:00:01,15.73207804,9.78e-05,53.2177,28.3245,116.9064,232.8331,-0.00015703,-0.00022605,0.0,0 STARLINK-3534,1 52120U 22029AJ  22101.58334491 -.00022605  00000-0 -15703-3 0  9994,2 52120  53.2177  28.3245 0000978 116.9064 232.8331 15.73207804  3701,6727.873000000001,91.533,350.396,349.08,0.0
52120.0,STARLINK-3534,PAYLOAD,2022-04-11 20:00:01,15.73213171,0.0001039,53.2178,27.0874,118.8564,207.5711,-0.00077123,-0.00107541,0.0,0 STARLINK-3534,1 52120U 22029AJ  22101.83334491 -.00107541  00000-0 -77123-3 0  9999,2 52120  53.2178  27.0874 0001039 118.8564 207.5711 15.73213171  4987,6727.858,91.532,350.422,349.024,0.0
52120.0,STARLINK-3534,PAYLOAD,2022-04-11 22:00:00,15.73195343,9.96e-05,53.2177,26.6756,115.2469,323.4125,-0.0007355,-0.00102568,0.0,0 STARLINK-3534,1 52120U 22029AJ  22101.91667824 -.00102568  00000-0 -73550-3 0  9991,2 52120  53.2177  26.6756 0000996 115.2469 323.4125 15.73195343  3690,6727.908,91.533,350.444,349.103,0.0
52120.0,STARLINK-3534,PAYLOAD,2022-04-12 04:00:00,15.73091183,0.0001062,53.2174,25.4401,103.5414,311.7819,0.00064356,0.00090251,0.0,0 STARLINK-3534,1 52120U 22029AJ  22102.16667824  .00090251  00000-0  64356-3 0  9996,2 52120  53.2174  25.4401 0001062 103.5414 311.7819 15.73091183  5044,6728.205,91.54,350.785,349.356,0.0
52120.0,STARLINK-3534,PAYLOAD,2022-04-12 14:00:01,15.73141665,0.0001036,53.2173,23.3764,118.1843,138.1944,0.00063252,0.0008887,0.0,0 STARLINK-3534,1 52120U 22029AJ  22102.58334491  .00088870  00000-0  63252-3 0  9991,2 52120  53.2173  23.3764 0001036 118.1843 138.1944 15.73141665  3714,6728.061,91.537,350.624,349.22900000000016,0.0
52120.0,STARLINK-3534,PAYLOAD,2022-04-12 20:00:01,15.73188575,0.0001127,53.2177,22.1394,119.6427,113.3804,0.00033822,0.0004709,0.0,0 STARLINK-3534,1 52120U 22029AJ  22102.83334491  .00047090  00000-0  33822-3 0  9998,2 52120  53.2177  22.1394 0001127 119.6427 113.3804 15.73188575  5149,6727.928000000001,91.534,350.551,349.035,0.0
52120.0,STARLINK-3534,PAYLOAD,2022-04-12 22:00:00,15.73208711,0.0001089,53.2177,21.7277,115.4972,229.7523,0.00012331,0.00016727,0.0,0 STARLINK-3534,1 52120U 22029AJ  22102.91667824  .00016727  00000-0  12331-3 0  9991,2 52120  53.2177  21.7277 0001089 115.4972 229.7523 15.73208711  3693,6727.87,91.533,350.468,349.00300000000016,0.0
52120.0,STARLINK-3534,PAYLOAD,2022-04-13 12:00:00,15.73206151,0.0001146,53.2178,18.8408,113.4818,297.4689,0.00032606,0.000454,0.0,0 STARLINK-3534,1 52120U 22029AJ  22103.50001157  .00045400  00000-0  32606-3 0  9995,2 52120  53.2178  18.8408 0001146 113.4818 297.4689 15.73206151  5253,6727.878000000002,91.533,350.514,348.972,0.0
52120.0,STARLINK-3534,PAYLOAD,2022-04-13 14:00:03,15.73192326,0.0001154,53.2177,18.4279,115.0908,48.2329,0.00067625,0.00095338,0.0,0 STARLINK-3534,1 52120U 22029AJ  22103.58336806  .00095338  00000-0  67625-3 0  9999,2 52120  53.2177  18.4279 0001154 115.0908  48.2329 15.73192326  3722,6727.917,91.534,350.55800000000005,349.006,0.0
52120.0,STARLINK-3534,PAYLOAD,2022-04-13 20:00:01,15.732054000000002,9.95e-05,53.2177,17.1848,102.411,37.4866,-1.0288e-05,-2.063e-05,0.0,0 STARLINK-3534,1 52120U 22029AJ  22103.83335648 -.00002063  00000-0 -10288-4 0  9999,2 52120  53.2177  17.1848 0000995 102.4110  37.4866 15.73205400  5307,6727.88,91.533,350.414,349.075,0.0
52120.0,STARLINK-3534,PAYLOAD,2022-04-13 22:00:00,15.73205236,0.0001043,53.2177,16.7731,100.109,151.9562,-9.728e-06,-1.985e-05,0.0,0 STARLINK-3534,1 52120U 22029AJ  22103.91667824 -.00001985  00000-0 -97280-5 0  9992,2 52120  53.2177  16.7731 0001043 100.1090 151.9562 15.73205236  3715,6727.88,91.533,350.44699999999995,349.0440000000001,0.0
52120.0,STARLINK-3534,PAYLOAD,2022-04-14 04:00:00,15.73229243,0.0001254,53.2175,15.5437,103.1517,125.7895,-2.31e-05,-3.865e-05,0.0,0 STARLINK-3534,1 52120U 22029AJ  22104.16667824 -.00003865  00000-0 -23100-4 0  9998,2 52120  53.2175  15.5437 0001254 103.1517 125.7895 15.73229243  5358,6727.812,91.531,350.52,348.833,0.0
52120.0,STARLINK-3534,PAYLOAD,2022-04-14 12:00:00,15.73225168,0.0001262,53.2173,13.8923,115.8079,202.0836,-0.00040266,-0.0005681,0.0,0 STARLINK-3534,1 52120U 22029AJ  22104.50001157 -.00056810  00000-0 -40266-3 0  9996,2 52120  53.2173  13.8923 0001262 115.8079 202.0836 15.73225168  5401,6727.823,91.532,350.537,348.839,0.0
52120.0,STARLINK-3534,PAYLOAD,2022-04-14 14:00:01,15.73178544,0.0001264,53.2172,13.4795,119.5152,310.6256,0.00022157,0.0003056,0.0,0 STARLINK-3534,1 52120U 22029AJ  22104.58334491  .00030560  00000-0  22157-3 0  9995,2 52120  53.2172  13.4795 0001264 119.5152 310.6256 15.73178544  3706,6727.956,91.534,350.672,348.971,0.0
52120.0,STARLINK-3534,PAYLOAD,2022-04-14 20:00:01,15.73224784,0.0001315,53.2176,12.243,116.6011,290.2066,-0.00032553,-0.00046104,0.0,0 STARLINK-3534,1 52120U 22029AJ  22104.83334491 -.00046104  00000-0 -32553-3 0  9997,2 52120  53.2176  12.2430 0001315 116.6011 290.2066 15.73224784  5467,6727.825,91.532,350.574,348.805,0.0
52120.0,STARLINK-3534,PAYLOAD,2022-04-14 22:00:00,15.73233215,0.0001256,53.2175,11.8312,114.9625,44.0785,-0.00058237,-0.00081677,0.0,0 STARLINK-3534,1 52120U 22029AJ  22104.91667824 -.00081677  00000-0 -58237-3 0  9996,2 52120  53.2175  11.8312 0001256 114.9625  44.0785 15.73233215  3714,6727.8,91.531,350.51,348.82,0.0
52120.0,STARLINK-3534,PAYLOAD,2022-04-15 03:25:32,15.73243216,0.0001216,53.2175,10.7106,109.4413,250.6739,0.00011315,0.00015318,0.0,0 STARLINK-3534,1 52120U 22029AJ  22105.14273482  .00015318  00000-0  11315-3 0  9998,2 52120  53.2175  10.7106 0001216 109.4413 250.6739 15.73243216  5508,6727.772,91.531,350.455,348.819,0.0
52120.0,STARLINK-3534,PAYLOAD,2022-04-15 11:02:56,15.73232921,0.0001208,53.2177,9.1402,108.9564,251.1588,0.00010911,0.00014741,0.0,0 STARLINK-3534,1 52120U 22029AJ  22105.46037215  .00014741  00000-0  10911-3 0  9995,2 52120  53.2177   9.1402 0001208 108.9564 251.1588 15.73232921  5557,6727.801,91.531,350.47900000000016,348.85400000000016,0.0
52120.0,STARLINK-3534,PAYLOAD,2022-04-15 14:00:01,15.73286553,0.0001095999999999,53.2174,8.5311,124.7472,212.2723,0.00017396,0.00023954,0.0,0 STARLINK-3534,1 52120U 22029AJ  22105.58334491  .00023954  00000-0  17396-3 0  9994,2 52120  53.2174   8.5311 0001096 124.7472 212.2723 15.73286553  3709,6727.648,91.528,350.251,348.776,0.0
52120.0,STARLINK-3534,PAYLOAD,2022-04-15 20:00:01,15.73291872,0.0001193,53.2175,7.2948,119.8988,193.8648,-0.00043421,-0.00061354,0.0,0 STARLINK-3534,1 52120U 22029AJ  22105.83334491 -.00061354  00000-0 -43421-3 0  9998,2 52120  53.2175   7.2948 0001193 119.8988 193.8648 15.73291872  5608,6727.6330000000025,91.528,350.301,348.696,0.0
52120.0,STARLINK-3534,PAYLOAD,2022-04-15 22:00:00,15.73295845,0.0001176,53.2173,6.882999999999999,114.9108,311.1058,-0.0006458,-0.00090652,0.0,0 STARLINK-3534,1 52120U 22029AJ  22105.91667824 -.00090652  00000-0 -64580-3 0  9998,2 52120  53.2173   6.8830 0001176 114.9108 311.1058 15.73295845  3682,6727.621999999999,91.528,350.278,348.696,0.0
